GLOBALSTAR M001 [-]     
1 25162U 98008A   24107.50579160 -.00000085  00000+0  86834-4 0  9994
2 25162  52.0008 135.0846 0001577  75.4117  71.5447 12.38181495190858
GLOBALSTAR M004 [-]     
1 25163U 98008B   24107.71646905 -.00000041  00000+0  34897-3 0  9993
2 25163  51.9991 275.1744 0003660  72.2193 301.3330 12.63355271207784
GLOBALSTAR M002 [-]     
1 25164U 98008C   24107.57735275 -.00000064  00000+0  24182-3 0  9998
2 25164  52.0004 229.8487 0001858  99.2431 260.8599 11.61500824134499
GLOBALSTAR M003 [-]     
1 25165U 98008D   24107.77490759  .00000003  00000+0  98461-3 0  9999
2 25165  51.9840 269.5339 0008500 152.1981 312.8191 12.11993092181513
GLOBALSTAR M014 [-]     
1 25306U 98023A   24107.45526098 -.00000064  00000+0  25243-3 0  9990
2 25306  51.9815 162.3512 0000713 275.8790 185.4246 11.65466890141413
GLOBALSTAR M006 [-]     
1 25307U 98023B   24107.50820179 -.00000028  00000+0  97770-3 0  9998
2 25307  51.9925 198.7436 0003722  68.4109 304.4736 11.58160613167395
GLOBALSTAR M015 [-]     
1 25308U 98023C   24107.70959856 -.00000092  00000+0 -42550-3 0  9994
2 25308  51.9815 277.1673 0012789  41.6124 331.9210 11.48850167145063
GLOBALSTAR M008 [-]     
1 25309U 98023D   24108.09862654 -.00000086  00000+0  78440-4 0  9997
2 25309  51.9995 353.3640 0002770  12.9799 134.8812 12.36040746185460
